STARLINK-3854           
1 52648U 22052BC  24192.89491221  .00004237  00000+0  28415-3 0  9998
2 52648  53.2180 103.1273 0001305 109.8087 250.3046 15.08837538119521
STARLINK-3868           
1 52649U 22052BD  24193.13410027  .00000952  00000+0  77912-4 0  9999
2 52649  53.2169 101.9105 0001531  84.6608 275.4559 15.08834132119949
STARLINK-3891           
1 52650U 22052BE  24193.10192343  .00001897  00000+0  13722-3 0  9993
2 52650  53.2183  92.3075 0001432  89.6202 270.4954 15.08843981120073
STARLINK-4004           
1 52656U 22053A   24192.86688628  .00000969  00000+0  78966-4 0  9999
2 52656  53.2180 358.2655 0001242  81.2051 278.9081 15.08845120119500
STARLINK-4084           
1 52657U 22053B   24192.83749096 -.00000125  00000+0  10241-4 0  9991
2 52657  53.2188 358.7099 0001147  94.9514 265.1610 15.08835386119795
STARLINK-4082           
1 52658U 22053C   24192.73713408  .00005673  00000+0  37415-3 0  9992
2 52658  53.2202 358.8377 0001514  98.3951 261.7213 15.08846146119601
STARLINK-3960           
1 52659U 22053D   24192.73344393  .00001131  00000+0  89162-4 0  9998
2 52659  53.2179 358.8075 0001401  81.9561 278.1590 15.08842740119594
STARLINK-4081           
1 52660U 22053E   24192.72977408  .00001962  00000+0  14132-3 0  9994
2 52660  53.2176 358.8676 0000877  98.1751 261.9341 15.08837500119487
STARLINK-4042           
1 52661U 22053F   24192.72609115  .00002415  00000+0  16974-3 0  9992
2 52661  53.2174 358.8881 0001243  75.7461 284.3669 15.08844119119410
STARLINK-4044           
1 52662U 22053G   24192.85121169  .00000801  00000+0  68363-4 0  9992
2 52662  53.2186 358.3210 0001146  77.3850 282.7270 15.08848073119432
STARLINK-4037           
1 52663U 22053H   24192.18513318  .00000095  00000+0  24058-4 0  9998
2 52663  53.2188   1.3173 0001207  99.7236 260.3893 15.08840424119336
STARLINK-4070           
1 52664U 22053J   24192.72241283  .00001687  00000+0  12408-3 0  9991
2 52664  53.2181 358.9036 0001041  85.2484 274.8627 15.08838953119418
STARLINK-4064           
1 52665U 22053K   24192.83649701  .00001296  00000+0  99487-4 0  9990
2 52665  53.2192 358.3972 0000934  98.2208 261.8890 15.08836361119433
STARLINK-4079           
1 52666U 22053L   24192.74076387  .00001020  00000+0  82161-4 0  9991
2 52666  53.2183 358.4356 0001292  87.7863 272.3278 15.08841618119426
STARLINK-4076           
1 52667U 22053M   24192.89905257  .00000427  00000+0  44927-4 0  9993
2 52667  53.2182 358.1111 0001484  82.6248 277.4913 15.08840372119446
STARLINK-4067           
1 52668U 22053N   24192.84017060  .00000273  00000+0  35234-4 0  9995
2 52668  53.2191 358.3794 0001149  99.3834 260.7288 15.08840080119435
STARLINK-3972           
1 52669U 22053P   24192.49056573  .00014815  00000+0  94636-3 0  9996
2 52669  53.2182 359.9466 0001116  75.1639 284.9477 15.08863386119373
STARLINK-4075           
1 52670U 22053Q   24192.84385702  .00001271  00000+0  97894-4 0  9998
2 52670  53.2180 358.4286 0001220  89.5112 270.6020 15.08845813119436
STARLINK-4071           
1 52671U 22053R   24192.48689058  .00001540  00000+0  11482-3 0  9997
2 52671  53.2180 359.9631 0001337  85.1438 274.9707 15.08840889119379
STARLINK-4073           
1 52672U 22053S   24192.49793402  .00000511  00000+0  50173-4 0  9996
2 52672  53.2187 359.9138 0001171  82.4194 277.6931 15.08838008119373
STARLINK-3976           
1 52673U 22053T   24192.47953411  .00006663  00000+0  43635-3 0  9991
2 52673  53.2181 359.9925 0001494  98.7704 261.3458 15.08840481119379
STARLINK-3936           
1 52674U 22053U   24192.49425330 -.00000224  00000+0  40336-5 0  9993
2 52674  53.2194 359.9306 0001342  75.0460 285.0681 15.08840109119385
STARLINK-3934           
1 52675U 22053V   24192.74173491  .00000317  00000+0  38014-4 0  9991
2 52675  53.2199 348.8233 0001298  82.1923 277.9217 15.08837697119114
STARLINK-4006           
1 52676U 22053W   24192.88065106  .00000594  00000+0  55434-4 0  9992
2 52676  53.2194 358.1916 0001361  98.2627 261.8520 15.08839983119009
STARLINK-4028           
1 52677U 22053X   24192.73437324 -.00000212  00000+0  47645-5 0  9996
2 52677  53.2194 348.8495 0001206  90.5627 269.5503 15.08835472119523
STARLINK-4074           
1 52678U 22053Y   24192.81902400  .00001787  00000+0  13032-3 0  9996
2 52678  53.2187 348.5739 0000772  75.7173 284.3905 15.08840712119559
STARLINK-4031           
1 52679U 22053Z   24192.85580947  .00000215  00000+0  31586-4 0  9999
2 52679  53.2199 348.3054 0001557  98.0884 262.0285 15.08843596119524
STARLINK-3774           
1 52680U 22053AA  24192.84842213  .00002283  00000+0  16147-3 0  9999
2 52680  53.2187 348.1075 0001278  86.8600 273.2538 15.08846254119546
STARLINK-4068           
1 52681U 22053AB  24192.71965484  .00001842  00000+0  13381-3 0  9999
2 52681  53.2179 348.9172 0001306  94.1716 265.9426 15.08837769119507
STARLINK-4017           
1 52682U 22053AC  24192.73068819  .00001509  00000+0  11285-3 0  9999
2 52682  53.2192 348.8713 0001016 104.8262 255.2843 15.08840938119525
STARLINK-4039           
1 52683U 22053AD  24192.84476812  .00000143  00000+0  27065-4 0  9995
2 52683  53.2182 348.3524 0001292  91.4830 268.6310 15.08840805119528
STARLINK-4014           
1 52684U 22053AE  24192.72701428  .00001394  00000+0  10564-3 0  9991
2 52684  53.2193 348.8835 0001165  87.9475 272.1651 15.08839252119505
STARLINK-4029           
1 52685U 22053AF  24192.83740954  .00000849  00000+0  71424-4 0  9998
2 52685  53.2180 348.3880 0001411  68.1652 291.9490 15.08844694119505
STARLINK-4005           
1 52686U 22053AG  24192.47776777  .00000934  00000+0  76759-4 0  9992
2 52686  53.2199 350.2843 0001253  95.5952 264.5184 15.08837897119455
STARLINK-3981           
1 52687U 22053AH  24192.70125162  .00006753  00000+0  44191-3 0  9994
2 52687  53.2174 349.0013 0001305  80.3585 279.7555 15.08843560119483
STARLINK-4032           
1 52688U 22053AJ  24192.69755803  .00000886  00000+0  73747-4 0  9995
2 52688  53.2166 348.9000 0001155  93.1601 266.9523 15.08840264119484
STARLINK-4078           
1 52689U 22053AK  24191.82909142  .00001184  00000+0  92443-4 0  9993
2 52689  53.2202 352.9176 0001664  90.4056 269.7127 15.08842635119388
STARLINK-4035           
1 52690U 22053AL  24192.84108577  .00001202  00000+0  93584-4 0  9999
2 52690  53.2190 348.3702 0001302  91.9842 268.1299 15.08849371119509
STARLINK-3945           
1 52691U 22053AM  24192.70959939  .00000428  00000+0  44998-4 0  9995
2 52691  53.2196 349.2110 0001208  87.3008 272.8123 15.08836687119512
STARLINK-3993           
1 52692U 22053AN  24192.73802323  .00000664  00000+0  59791-4 0  9992
2 52692  53.2192 348.5700 0001227 108.0222 252.0904 15.08837238119527
STARLINK-3946           
1 52693U 22053AP  24192.41421121  .00001604  00000+0  11886-3 0  9998
2 52693  53.2184 350.2896 0001264 100.9801 259.1334 15.08843392119073
STARLINK-4072           
1 52694U 22053AQ  24192.69389588  .00000408  00000+0  43763-4 0  9990
2 52694  53.2185 349.0354 0001631  78.4953 281.6222 15.08838562119513
STARLINK-4041           
1 52695U 22053AR  24192.73204778  .00004064  00000+0  27327-3 0  9992
2 52695  53.2186 353.6592 0001315  88.9930 271.1213 15.08842003119463
STARLINK-4025           
1 52696U 22053AS  24192.15293485 -.00000055  00000+0  14653-4 0  9998
2 52696  53.2200 351.4645 0001330  94.0541 266.0603 15.08839035119433
STARLINK-4018           
1 52697U 22053AT  24192.42759054  .00001955  00000+0  14088-3 0  9998
2 52697  53.2192 355.2318 0001366  93.8289 266.2859 15.08840228119002
STARLINK-4030           
1 52698U 22053AU  24192.43767282  .00001578  00000+0  11719-3 0  9991
2 52698  53.2191 355.1741 0001174  96.5122 263.6004 15.08837040119005
STARLINK-3987           
1 52699U 22053AV  24192.68147685  .00001806  00000+0  13155-3 0  9998
2 52699  53.2166 344.1175 0001140  78.2080 281.9040 15.08838817119602
STARLINK-4034           
1 52700U 22053AW  24192.72834892  .00008536  00000+0  55364-3 0  9994
2 52700  53.2187 353.5213 0001142  82.2467 277.8655 15.08848019119466
STARLINK-4003           
1 52701U 22053AX  24192.79417458 -.00000433  00000+0 -90947-5 0  9995
2 52701  53.2197 338.5811 0001350  81.0553 279.0592 15.08836776119695
STARLINK-4033           
1 52702U 22053AY  24192.82407797  .00001513  00000+0  11315-3 0  9993
2 52702  53.2185 353.4800 0001208  94.3175 265.7956 15.08839996119475
STARLINK-4020           
1 52703U 22053AZ  24192.84937842  .00001649  00000+0  12171-3 0  9996
2 52703  53.2168 338.3498 0001773  78.9627 281.1564 15.08840468118426
STARLINK-3999           
1 52704U 22053BA  24192.79785474  .00001985  00000+0  14277-3 0  9995
2 52704  53.2169 338.5693 0001323  87.2025 272.9118 15.08843848119691
STARLINK-3844           
1 52705U 22053BB  24192.12441438  .00000229  00000+0  32463-4 0  9990
2 52705  53.2192 341.5915 0001105 102.3590 257.7526 15.08835427119590
STARLINK-3970           
1 52706U 22053BC  24192.79049700  .00004471  00000+0  29882-3 0  9993
2 52706  53.2184 338.6008 0001296  79.4070 280.7068 15.08838600119694
STARLINK-4007           
1 52707U 22053BD  24192.70215494  .00000247  00000+0  33600-4 0  9991
2 52707  53.2193 338.8827 0001524  96.6244 263.4922 15.08842133119743
STARLINK-3962           
1 52708U 22053BE  24192.68008774  .00000758  00000+0  65686-4 0  9996
2 52708  53.2185 339.0868 0001456  86.4785 273.6373 15.08841652119887
STARLINK-4091           
1 52830U 22062A   24192.42803823 -.00001259  00000+0 -61046-4 0  9997
2 52830  53.2166 240.4181 0001426  96.3597 263.7557 15.08835263114108
STARLINK-4089           
1 52831U 22062B   24192.55313359 -.00000477  00000+0 -11879-4 0  9992
2 52831  53.2171 239.6628 0001474  97.9623 262.1537 15.08835087114634
STARLINK-4083           
1 52832U 22062C   24193.14562915  .00001496  00000+0  11208-3 0  9998
2 52832  53.2164 237.0034 0001188  91.9813 268.1316 15.08824985114701
